NORAD_CAT_ID,OBJECT_NAME,OBJECT_TYPE,EPOCH,MEAN_MOTION,ECCENTRICITY,INCLINATION,RA_OF_ASC_NODE,ARG_OF_PERICENTER,MEAN_ANOMALY,BSTAR,MEAN_MOTION_DOT,MEAN_MOTION_DDOT,TLE_LINE0,TLE_LINE1,TLE_LINE2,SEMIMAJOR_AXIS,PERIOD,APOGEE,PERIGEE,DECAYED
52094.0,STARLINK-3714,PAYLOAD,2023-09-02 17:28:58,15.08836612,0.0001518,53.2147,254.499,93.6412,266.4753,6.1994e-05,6.99e-06,0.0,0 STARLINK-3714,1 52094U 22029G   23245.72845210  .00000699  00000-0  61994-4 0  9997,2 52094  53.2147 254.4990 0001518  93.6412 266.4753 15.08836612 81920,6917.891,95.438,540.806,538.706,0.0
52094.0,STARLINK-3714,PAYLOAD,2023-09-03 07:47:26,15.08841225,0.0001432,53.2153,251.8234,95.5104,264.6052,8.6644e-05,1.091e-05,0.0,0 STARLINK-3714,1 52094U 22029G   23246.32460993  .00001091  00000-0  86644-4 0  9991,2 52094  53.2153 251.8234 0001432  95.5104 264.6052 15.08841225 82012,6917.877,95.437,540.732,538.751,0.0
52094.0,STARLINK-3714,PAYLOAD,2023-09-03 23:41:18,15.08833684,0.000137,53.2158,248.8508,90.7922,269.3227,5.2324e-05,5.45e-06,0.0,0 STARLINK-3714,1 52094U 22029G   23246.98701683  .00000545  00000-0  52324-4 0  9998,2 52094  53.2158 248.8508 0001370  90.7922 269.3227 15.08833684 82110,6917.9,95.438,540.712,538.817,0.0
52094.0,STARLINK-3714,PAYLOAD,2023-09-04 09:13:37,15.08831687,0.0001259,53.217,247.0652,96.6958,263.4177,-1.3286e-05,-4.99e-06,0.0,0 STARLINK-3714,1 52094U 22029G   23247.38446165 -.00000499  00000-0 -13286-4 0  9998,2 52094  53.2170 247.0652 0001259  96.6958 263.4177 15.08831687 82171,6917.906,95.438,540.642,538.9,0.0
52094.0,STARLINK-3714,PAYLOAD,2023-09-05 09:04:24,15.08841087,0.0001398,53.2157,242.605,85.3515,274.7637,5.2905e-05,5.54e-06,0.0,0 STARLINK-3714,1 52094U 22029G   23248.37805693  .00000554  00000-0  52905-4 0  9994,2 52094  53.2157 242.6050 0001398  85.3515 274.7637 15.08841087 82325,6917.877,95.437,540.709,538.775,0.0
52094.0,STARLINK-3714,PAYLOAD,2023-09-06 08:55:10,15.08844317,0.0001372,53.2158,238.1435,86.6917,273.4232,0.00013665,1.888e-05,0.0,0 STARLINK-3714,1 52094U 22029G   23249.37165256  .00001888  00000-0  13665-3 0  9999,2 52094  53.2158 238.1435 0001372  86.6917 273.4232 15.08844317 82477,6917.867,95.437,540.681,538.783,0.0
52094.0,STARLINK-3714,PAYLOAD,2023-09-06 16:52:06,15.08842771,0.0001353,53.2157,236.6571,85.8596,274.2551,0.00010556,1.393e-05,0.0,0 STARLINK-3714,1 52094U 22029G   23249.70285426  .00001393  00000-0  10556-3 0  9995,2 52094  53.2157 236.6571 0001353  85.8596 274.2551 15.08842771 82524,6917.872,95.437,540.673,538.801,0.0
52094.0,STARLINK-3714,PAYLOAD,2023-09-07 08:45:58,15.08841052,0.0001381,53.2154,233.6818,92.0303,268.0848,1.4823e-05,-5.2e-07,0.0,0 STARLINK-3714,1 52094U 22029G   23250.36525745 -.00000052  00000-0  14823-4 0  9994,2 52094  53.2154 233.6818 0001381  92.0303 268.0848 15.08841052 82621,6917.877,95.437,540.698,538.787,0.0
52094.0,STARLINK-3714,PAYLOAD,2023-09-08 05:25:58,15.08848267,0.0001355,53.2155,229.8162,98.8752,261.2393,-7.6953e-05,-1.513e-05,0.0,0 STARLINK-3714,1 52094U 22029G   23251.22637587 -.00001513  00000-0 -76953-4 0  9994,2 52094  53.2155 229.8162 0001355  98.8752 261.2393 15.08848267 82753,6917.855,95.437,540.657,538.783,0.0
52094.0,STARLINK-3714,PAYLOAD,2023-09-09 02:05:59,15.08834216,0.0001389,53.2155,225.9494,104.8126,255.302,9.5281e-05,1.229e-05,0.0,0 STARLINK-3714,1 52094U 22029G   23252.08749986  .00001229  00000-0  95281-4 0  9993,2 52094  53.2155 225.9494 0001389 104.8126 255.3020 15.08834216 82882,6917.898,95.438,540.724,538.802,0.0
52094.0,STARLINK-3714,PAYLOAD,2023-09-09 06:52:08,15.08848446,0.0001198,53.2166,225.0613,98.7068,261.406,-4.0523e-05,-9.33e-06,0.0,0 STARLINK-3714,1 52094U 22029G   23252.28621496 -.00000933  00000-0 -40523-4 0  9992,2 52094  53.2166 225.0613 0001198  98.7068 261.4060 15.08848446 82918,6917.855,95.437,540.548,538.891,0.0
52094.0,STARLINK-3714,PAYLOAD,2023-09-10 01:56:47,15.08836057,0.0001381,53.2174,221.495,104.4658,255.6487,5.5712e-05,5.99e-06,0.0,0 STARLINK-3714,1 52094U 22029G   23253.08110278  .00000599  00000-0  55712-4 0  9994,2 52094  53.2174 221.4950 0001381 104.4658 255.6487 15.08836057 83032,6917.892,95.438,540.713,538.802,0.0
52094.0,STARLINK-3714,PAYLOAD,2023-09-10 08:18:19,15.08837862,0.0001321,53.2173,220.3028,94.8766,265.2377,6.5656e-05,7.57e-06,0.0,0 STARLINK-3714,1 52094U 22029G   23253.34606165  .00000757  00000-0  65656-4 0  9992,2 52094  53.2173 220.3028 0001321  94.8766 265.2377 15.08837862 83075,6917.887,95.438,540.666,538.838,0.0
52094.0,STARLINK-3714,PAYLOAD,2023-09-11 06:33:43,15.0884205,0.0001269,53.2167,216.1392,92.5271,267.5866,5.8862e-05,6.49e-06,0.0,0 STARLINK-3714,1 52094U 22029G   23254.27342196  .00000649  00000-0  58862-4 0  9997,2 52094  53.2167 216.1392 0001269  92.5271 267.5866 15.08842050 83211,6917.874,95.437,540.617,538.861,0.0
52094.0,STARLINK-3714,PAYLOAD,2023-09-12 01:38:20,15.08871509,0.0001504,53.2168,212.5708,79.0312,281.085,-0.00044688,-7.399e-05,0.0,0 STARLINK-3714,1 52094U 22029G   23255.06829484 -.00007399  00000-0 -44688-3 0  9996,2 52094  53.2168 212.5708 0001504  79.0312 281.0850 15.08871509 83339,6917.784,95.436,540.69,538.609,0.0
52094.0,STARLINK-3714,PAYLOAD,2023-09-12 07:59:53,15.08845215,0.0001319,53.2163,211.3812,89.2003,270.914,9.6676e-05,1.251e-05,0.0,0 STARLINK-3714,1 52094U 22029G   23255.33326008  .00001251  00000-0  96676-4 0  9994,2 52094  53.2163 211.3812 0001319  89.2003 270.9140 15.08845215 83379,6917.864,95.437,540.642,538.817,0.0
52094.0,STARLINK-3714,PAYLOAD,2023-09-13 03:04:31,15.08844231,0.0001367,53.2157,207.8117,95.2657,264.8491,4.3429e-05,4.03e-06,0.0,0 STARLINK-3714,1 52094U 22029G   23256.12814302  .00000403  00000-0  43429-4 0  9997,2 52094  53.2157 207.8117 0001367  95.2657 264.8491 15.08844231 83496,6917.867,95.437,540.678,538.787,0.0
52094.0,STARLINK-3714,PAYLOAD,2023-09-13 06:15:17,15.08853399,0.0001361,53.2162,207.2172,90.938,269.1768,0.00012309,1.672e-05,0.0,0 STARLINK-3714,1 52094U 22029G   23256.26061546  .00001672  00000-0  12309-3 0  9997,2 52094  53.2162 207.2172 0001361  90.9380 269.1768 15.08853399 83519,6917.839,95.437,540.646,538.763,0.0
52094.0,STARLINK-3714,PAYLOAD,2023-09-13 20:33:46,15.08837378,0.0001393,53.2174,204.541,96.5331,263.5819,3.4695e-05,2.64e-06,0.0,0 STARLINK-3714,1 52094U 22029G   23256.85678782  .00000264  00000-0  34695-4 0  9997,2 52094  53.2174 204.5410 0001393  96.5331 263.5819 15.08837378 83604,6917.888,95.438,540.717,538.79,0.0
52094.0,STARLINK-3714,PAYLOAD,2023-09-14 01:19:55,15.08837979,0.0001607,53.217,203.6477,104.3722,255.7448,4.2784e-05,3.93e-06,0.0,0 STARLINK-3714,1 52094U 22029G   23257.05550692  .00000393  00000-0  42784-4 0  9990,2 52094  53.2170 203.6477 0001607 104.3722 255.7448 15.08837979 83634,6917.887,95.438,540.863,538.64,0.0
52094.0,STARLINK-3714,PAYLOAD,2023-09-14 06:06:05,15.08842316,0.0001536,53.2168,202.7559,97.7803,262.3363,2.4385e-05,1e-06,0.0,0 STARLINK-3714,1 52094U 22029G   23257.25422532  .00000100  00000-0  24385-4 0  9996,2 52094  53.2168 202.7559 0001536  97.7803 262.3363 15.08842316 83662,6917.873,95.437,540.801,538.676,0.0
52094.0,STARLINK-3714,PAYLOAD,2023-09-15 02:46:05,15.08849873,0.0001398,53.2169,198.8908,96.9474,263.1677,6.5174e-06,-1.84e-06,0.0,0 STARLINK-3714,1 52094U 22029G   23258.11534208 -.00000184  00000-0  65174-5 0  9991,2 52094  53.2169 198.8908 0001398  96.9474 263.1677 15.08849873 83793,6917.85,95.437,540.682,538.748,0.0
52094.0,STARLINK-3714,PAYLOAD,2023-09-15 05:56:51,15.08851005,0.0001409,53.2169,198.2953,98.58,261.5352,2.548e-05,1.18e-06,0.0,0 STARLINK-3714,1 52094U 22029G   23258.24782064  .00000118  00000-0  25480-4 0  9991,2 52094  53.2169 198.2953 0001409  98.5800 261.5352 15.08851005 83816,6917.847,95.437,540.686,538.737,0.0
52094.0,STARLINK-3714,PAYLOAD,2023-09-16 02:36:52,15.08842609,0.0001353,53.2166,194.4296,99.0492,261.0654,9.6861e-05,1.254e-05,0.0,0 STARLINK-3714,1 52094U 22029G   23259.10894404  .00001254  00000-0  96861-4 0  9992,2 52094  53.2166 194.4296 0001353  99.0492 261.0654 15.08842609 83946,6917.872,95.437,540.673,538.801,0.0
52094.0,STARLINK-3714,PAYLOAD,2023-09-16 05:47:38,15.08844096,0.0001171,53.2162,193.8367,92.2981,267.8145,0.00012751,1.742e-05,0.0,0 STARLINK-3714,1 52094U 22029G   23259.24142243  .00001742  00000-0  12751-3 0  9991,2 52094  53.2162 193.8367 0001171  92.2981 267.8145 15.08844096 83963,6917.868,95.437,540.543,538.923,0.0
52094.0,STARLINK-3714,PAYLOAD,2023-09-16 18:30:44,15.08835745,0.0001256,53.2168,191.4586,93.0745,267.0391,6.1377e-05,6.89e-06,0.0,0 STARLINK-3714,1 52094U 22029G   23259.77135070  .00000689  00000-0  61377-4 0  9997,2 52094  53.2168 191.4586 0001256  93.0745 267.0391 15.08835745 84043,6917.893,95.438,540.627,538.89,0.0
52094.0,STARLINK-3714,PAYLOAD,2023-09-17 04:03:03,15.08844696,0.0001385,53.217,189.6731,103.8328,256.2819,7.5436e-05,9.13e-06,0.0,0 STARLINK-3714,1 52094U 22029G   23260.16878577  .00000913  00000-0  75436-4 0  9999,2 52094  53.2170 189.6731 0001385 103.8328 256.2819 15.08844696 84104,6917.866,95.437,540.689,538.773,0.0
52094.0,STARLINK-3714,PAYLOAD,2023-09-18 05:29:13,15.08849672,0.0001233,53.2167,184.9158,94.3314,265.7819,0.00012475,1.699e-05,0.0,0 STARLINK-3714,1 52094U 22029G   23261.22862311  .00001699  00000-0  12475-3 0  9991,2 52094  53.2167 184.9158 0001233  94.3314 265.7819 15.08849672 84263,6917.851,95.437,540.569,538.863,0.0
52094.0,STARLINK-3714,PAYLOAD,2023-09-19 02:09:13,15.08846202,0.0001567,53.2168,181.0493,94.9138,265.2033,9.7397e-05,1.263e-05,0.0,0 STARLINK-3714,1 52094U 22029G   23262.08974524  .00001263  00000-0  97397-4 0  9990,2 52094  53.2168 181.0493 0001567  94.9138 265.2033 15.08846202 84397,6917.861,95.437,540.81,538.642,0.0
52094.0,STARLINK-3714,PAYLOAD,2023-09-20 03:35:23,15.08855679,0.0001452,53.2161,176.2924,83.8547,276.261,0.00026258,3.895e-05,0.0,0 STARLINK-3714,1 52094U 22029G   23263.14957718  .00003895  00000-0  26258-3 0  9994,2 52094  53.2161 176.2924 0001452  83.8547 276.2610 15.08855679 84558,6917.832,95.437,540.702,538.693,0.0
